[{"OBJECT_NAME":"STARLINK-31704","OBJECT_ID":"2024-076Y","EPOCH":"2026-03-09T22:00:01.999584","MEAN_MOTION":15.30892355,"ECCENTRICITY":0.00079744,"INCLINATION":42.9978,"RA_OF_ASC_NODE":323.2923,"ARG_OF_PERICENTER":240.5046,"MEAN_ANOMALY":200.4144,"EPHEMERIS_TYPE":0,"CLASSIFICATION_TYPE":"U","NORAD_CAT_ID":59586,"ELEMENT_SET_NO":999,"REV_AT_EPOCH":581,"BSTAR":0.0024766131,"MEAN_MOTION_DOT":0.00076042,"MEAN_MOTION_DDOT":0},{"OBJECT_NAME":"STARLINK-34377","OBJECT_ID":"2025-120Z","EPOCH":"2026-03-09T12:47:18.513888","MEAN_MOTION":15.30196282,"ECCENTRICITY":0.00015182,"INCLINATION":53.159,"RA_OF_ASC_NODE":117.3068,"ARG_OF_PERICENTER":91.6174,"MEAN_ANOMALY":268.5,"EPHEMERIS_TYPE":0,"CLASSIFICATION_TYPE":"U","NORAD_CAT_ID":64279,"ELEMENT_SET_NO":999,"REV_AT_EPOCH":4389,"BSTAR":0.0010629749,"MEAN_MOTION_DOT":0.00031252,"MEAN_MOTION_DDOT":0}]
